[{"OBJECT_NAME":"BEIDOU-3 M17 (C36)","OBJECT_ID":"2018-093A","EPOCH":"2026-03-15T07:32:52.527840","MEAN_MOTION":1.86228448,"ECCENTRICITY":0.00073704,"INCLINATION":54.1706,"RA_OF_ASC_NODE":185.4812,"ARG_OF_PERICENTER":295.0478,"MEAN_ANOMALY":45.7962,"EPHEMERIS_TYPE":0,"CLASSIFICATION_TYPE":"U","NORAD_CAT_ID":43706,"ELEMENT_SET_NO":999,"REV_AT_EPOCH":4978,"BSTAR":0,"MEAN_MOTION_DOT":-9.0e-8,"MEAN_MOTION_DDOT":0},{"OBJECT_NAME":"BEIDOU-3 M18 (C37)","OBJECT_ID":"2018-093B","EPOCH":"2026-03-15T04:55:45.376320","MEAN_MOTION":1.86226692,"ECCENTRICITY":0.00060561,"INCLINATION":54.1719,"RA_OF_ASC_NODE":185.4768,"ARG_OF_PERICENTER":338.4916,"MEAN_ANOMALY":21.4667,"EPHEMERIS_TYPE":0,"CLASSIFICATION_TYPE":"U","NORAD_CAT_ID":43707,"ELEMENT_SET_NO":999,"REV_AT_EPOCH":4978,"BSTAR":0,"MEAN_MOTION_DOT":-1.0e-7,"MEAN_MOTION_DDOT":0},{"OBJECT_NAME":"BEIDOU-3 IGSO-1 (C38)","OBJECT_ID":"2019-023A","EPOCH":"2026-03-15T07:19:04.356192","MEAN_MOTION":1.00267829,"ECCENTRICITY":0.00255325,"INCLINATION":58.5692,"RA_OF_ASC_NODE":38.6155,"ARG_OF_PERICENTER":236.0551,"MEAN_ANOMALY":126.9088,"EPHEMERIS_TYPE":0,"CLASSIFICATION_TYPE":"U","NORAD_CAT_ID":44204,"ELEMENT_SET_NO":999,"REV_AT_EPOCH":627,"BSTAR":0,"MEAN_MOTION_DOT":-1.87e-6,"MEAN_MOTION_DDOT":0},{"OBJECT_NAME":"BEIDOU-2 G8 (C01)","OBJECT_ID":"2019-027A","EPOCH":"2026-03-15T07:26:48.613632","MEAN_MOTION":1.00273503,"ECCENTRICITY":0.00114822,"INCLINATION":1.4187,"RA_OF_ASC_NODE":74.2596,"ARG_OF_PERICENTER":274.9606,"MEAN_ANOMALY":79.9012,"EPHEMERIS_TYPE":0,"CLASSIFICATION_TYPE":"U","NORAD_CAT_ID":44231,"ELEMENT_SET_NO":999,"REV_AT_EPOCH":2513,"BSTAR":0,"MEAN_MOTION_DOT":-2.47e-6,"MEAN_MOTION_DDOT":0},{"OBJECT_NAME":"BEIDOU-3 IGSO-2 (C39)","OBJECT_ID":"2019-035A","EPOCH":"2026-02-26T16:31:51.989952","MEAN_MOTION":1.00247364,"ECCENTRICITY":0.00387345,"INCLINATION":55.2338,"RA_OF_ASC_NODE":159.8353,"ARG_OF_PERICENTER":206.4752,"MEAN_ANOMALY":153.7223,"EPHEMERIS_TYPE":0,"CLASSIFICATION_TYPE":"U","NORAD_CAT_ID":44337,"ELEMENT_SET_NO":999,"REV_AT_EPOCH":2456,"BSTAR":0,"MEAN_MOTION_DOT":-1.76e-6,"MEAN_MOTION_DDOT":0},{"OBJECT_NAME":"BEIDOU-3 M24 (C46)","OBJECT_ID":"2019-061A","EPOCH":"2026-03-14T04:49:54.155136","MEAN_MOTION":1.862291,"ECCENTRICITY":0.00084889,"INCLINATION":54.3984,"RA_OF_ASC_NODE":185.9306,"ARG_OF_PERICENTER":19.2225,"MEAN_ANOMALY":340.7928,"EPHEMERIS_TYPE":0,"CLASSIFICATION_TYPE":"U","NORAD_CAT_ID":44542,"ELEMENT_SET_NO":999,"REV_AT_EPOCH":4402,"BSTAR":0,"MEAN_MOTION_DOT":-1.3e-7,"MEAN_MOTION_DDOT":0},{"OBJECT_NAME":"BEIDOU-3 M23 (C45)","OBJECT_ID":"2019-061B","EPOCH":"2026-03-14T10:50:42.842400","MEAN_MOTION":1.86227431,"ECCENTRICITY":0.00049236,"INCLINATION":54.397,"RA_OF_ASC_NODE":185.8909,"ARG_OF_PERICENTER":10.3958,"MEAN_ANOMALY":69.7972,"EPHEMERIS_TYPE":0,"CLASSIFICATION_TYPE":"U","NORAD_CAT_ID":44543,"ELEMENT_SET_NO":999,"REV_AT_EPOCH":4403,"BSTAR":0,"MEAN_MOTION_DOT":-1.2e-7,"MEAN_MOTION_DDOT":0},{"OBJECT_NAME":"BEIDOU-3 IGSO-3 (C40)","OBJECT_ID":"2019-073A","EPOCH":"2026-03-10T23:36:11.529792","MEAN_MOTION":1.00267242,"ECCENTRICITY":0.00407281,"INCLINATION":54.9673,"RA_OF_ASC_NODE":281.9576,"ARG_OF_PERICENTER":188.7089,"MEAN_ANOMALY":171.2538,"EPHEMERIS_TYPE":0,"CLASSIFICATION_TYPE":"U","NORAD_CAT_ID":44709,"ELEMENT_SET_NO":999,"REV_AT_EPOCH":2347,"BSTAR":0,"MEAN_MOTION_DOT":-1.43e-6,"MEAN_MOTION_DDOT":0},{"OBJECT_NAME":"BEIDOU-3 M22 (C44)","OBJECT_ID":"2019-078A","EPOCH":"2026-03-14T00:58:20.373312","MEAN_MOTION":1.8623232,"ECCENTRICITY":0.00074654,"INCLINATION":54.0216,"RA_OF_ASC_NODE":303.1765,"ARG_OF_PERICENTER":38.197,"MEAN_ANOMALY":321.912,"EPHEMERIS_TYPE":0,"CLASSIFICATION_TYPE":"U","NORAD_CAT_ID":44793,"ELEMENT_SET_NO":999,"REV_AT_EPOCH":4287,"BSTAR":0,"MEAN_MOTION_DOT":-1.9e-7,"MEAN_MOTION_DDOT":0},{"OBJECT_NAME":"BEIDOU-3 M21 (C43)","OBJECT_ID":"2019-078B","EPOCH":"2026-03-14T17:12:49.298400","MEAN_MOTION":1.86228018,"ECCENTRICITY":0.00054955,"INCLINATION":53.9944,"RA_OF_ASC_NODE":303.1159,"ARG_OF_PERICENTER":33.8306,"MEAN_ANOMALY":326.262,"EPHEMERIS_TYPE":0,"CLASSIFICATION_TYPE":"U","NORAD_CAT_ID":44794,"ELEMENT_SET_NO":999,"REV_AT_EPOCH":4289,"BSTAR":0,"MEAN_MOTION_DOT":-1.6e-7,"MEAN_MOTION_DDOT":0},{"OBJECT_NAME":"BEIDOU-3 M19 (C41)","OBJECT_ID":"2019-090A","EPOCH":"2026-03-15T02:17:25.101888","MEAN_MOTION":1.86231813,"ECCENTRICITY":0.00204046,"INCLINATION":56.4771,"RA_OF_ASC_NODE":65.8991,"ARG_OF_PERICENTER":291.9331,"MEAN_ANOMALY":158.2804,"EPHEMERIS_TYPE":0,"CLASSIFICATION_TYPE":"U","NORAD_CAT_ID":44864,"ELEMENT_SET_NO":999,"REV_AT_EPOCH":4248,"BSTAR":0,"MEAN_MOTION_DOT":2.1e-7,"MEAN_MOTION_DDOT":0},{"OBJECT_NAME":"BEIDOU-3 M20 (C42)","OBJECT_ID":"2019-090B","EPOCH":"2026-03-14T07:15:32.481792","MEAN_MOTION":1.86231612,"ECCENTRICITY":0.00178692,"INCLINATION":56.478,"RA_OF_ASC_NODE":65.96,"ARG_OF_PERICENTER":303.3279,"MEAN_ANOMALY":64.8469,"EPHEMERIS_TYPE":0,"CLASSIFICATION_TYPE":"U","NORAD_CAT_ID":44865,"ELEMENT_SET_NO":999,"REV_AT_EPOCH":4245,"BSTAR":0,"MEAN_MOTION_DOT":1.9e-7,"MEAN_MOTION_DDOT":0},{"OBJECT_NAME":"BEIDOU-3 G2 (C60)","OBJECT_ID":"2020-017A","EPOCH":"2026-03-15T03:42:55.084608","MEAN_MOTION":1.00272327,"ECCENTRICITY":0.00027417,"INCLINATION":2.6744,"RA_OF_ASC_NODE":45.755,"ARG_OF_PERICENTER":323.6454,"MEAN_ANOMALY":299.1401,"EPHEMERIS_TYPE":0,"CLASSIFICATION_TYPE":"U","NORAD_CAT_ID":45344,"ELEMENT_SET_NO":999,"REV_AT_EPOCH":2231,"BSTAR":0,"MEAN_MOTION_DOT":-1.39e-6,"MEAN_MOTION_DDOT":0},{"OBJECT_NAME":"BEIDOU-3 G3 (C61)","OBJECT_ID":"2020-040A","EPOCH":"2026-03-15T02:08:56.598144","MEAN_MOTION":1.00270422,"ECCENTRICITY":0.00048456,"INCLINATION":2.2145,"RA_OF_ASC_NODE":67.1502,"ARG_OF_PERICENTER":325.3989,"MEAN_ANOMALY":282.9054,"EPHEMERIS_TYPE":0,"CLASSIFICATION_TYPE":"U","NORAD_CAT_ID":45807,"ELEMENT_SET_NO":999,"REV_AT_EPOCH":2112,"BSTAR":0,"MEAN_MOTION_DOT":-3.53e-6,"MEAN_MOTION_DDOT":0},{"OBJECT_NAME":"BEIDOU-3 G4 (C62)","OBJECT_ID":"2023-066A","EPOCH":"2026-03-13T04:10:32.176992","MEAN_MOTION":1.00272296,"ECCENTRICITY":0.00026474,"INCLINATION":0.6336,"RA_OF_ASC_NODE":312.1088,"ARG_OF_PERICENTER":153.4351,"MEAN_ANOMALY":287.9442,"EPHEMERIS_TYPE":0,"CLASSIFICATION_TYPE":"U","NORAD_CAT_ID":56564,"ELEMENT_SET_NO":999,"REV_AT_EPOCH":1043,"BSTAR":0,"MEAN_MOTION_DOT":-1.11e-6,"MEAN_MOTION_DDOT":0},{"OBJECT_NAME":"BEIDOU-3 M28 (C50)","OBJECT_ID":"2023-207A","EPOCH":"2026-03-13T17:17:53.810880","MEAN_MOTION":1.86229773,"ECCENTRICITY":0.00049774,"INCLINATION":55.6694,"RA_OF_ASC_NODE":65.5222,"ARG_OF_PERICENTER":305.9,"MEAN_ANOMALY":54.0758,"EPHEMERIS_TYPE":0,"CLASSIFICATION_TYPE":"U","NORAD_CAT_ID":58654,"ELEMENT_SET_NO":999,"REV_AT_EPOCH":1506,"BSTAR":0,"MEAN_MOTION_DOT":1.2e-7,"MEAN_MOTION_DDOT":0},{"OBJECT_NAME":"BEIDOU-3 M26 (C48)","OBJECT_ID":"2023-207B","EPOCH":"2026-03-14T14:12:42.465024","MEAN_MOTION":1.86229709,"ECCENTRICITY":0.00057135,"INCLINATION":55.6721,"RA_OF_ASC_NODE":65.4789,"ARG_OF_PERICENTER":291.4407,"MEAN_ANOMALY":68.5207,"EPHEMERIS_TYPE":0,"CLASSIFICATION_TYPE":"U","NORAD_CAT_ID":58655,"ELEMENT_SET_NO":999,"REV_AT_EPOCH":1506,"BSTAR":0,"MEAN_MOTION_DOT":1.6e-7,"MEAN_MOTION_DDOT":0}]
